{
  "type": "FeatureCollection",
  "features": [
    {
      "type": "Feature",
      "properties": {
        "norad_id": 29914,
        "name": "FENGYUN 1C DEB",
        "group": "fengyun-1c-debris",
        "lat": -26.668309675199122,
        "lon": 25.515139317503422,
        "alt_km": 904.1338794236235,
        "timestamp": "2025-12-18T14:52:08.297932+00:00",
        "meta_object_name": "FENGYUN 1C DEB",
        "meta_object_id": "1999-025HL",
        "meta_epoch": "2025-12-18T01:26:11.671584",
        "meta_mean_motion": 14.03133032,
        "meta_eccentricity": 0.0036733,
        "meta_inclination": 98.8436,
        "meta_ra_of_asc_node": 20.4866,
        "meta_arg_of_pericenter": 100.4306,
        "meta_mean_anomaly": 287.4504,
        "meta_ephemeris_type": 0,
        "meta_classification_type": "U",
        "meta_norad_cat_id": 29914,
        "meta_element_set_no": 999,
        "meta_rev_at_epoch": 96861,
        "meta_bstar": -2.57135e-05,
        "meta_mean_motion_dot": -8.3e-07,
        "meta_mean_motion_ddot": 0,
        "tle_line1": "1 29914U 99025HL  25352.05985731 -.00000083  00000+0 -25714-4 0  9990",
        "tle_line2": "2 29914  98.8436  20.4866 0036733 100.4306 287.4504 14.03133032968617"
      },
      "geometry": {
        "type": "Point",
        "coordinates": [
          25.515139317503422,
          -26.668309675199122
        ]
      }
    },
    {
      "type": "Feature",
      "properties": {
        "norad_id": 29916,
        "name": "FENGYUN 1C DEB",
        "group": "fengyun-1c-debris",
        "lat": 74.7440462125088,
        "lon": -24.94005084175884,
        "alt_km": 1234.353972366578,
        "timestamp": "2025-12-18T14:52:08.297942+00:00",
        "meta_object_name": "FENGYUN 1C DEB",
        "meta_object_id": "1999-025HN",
        "meta_epoch": "2025-12-18T00:27:22.756032",
        "meta_mean_motion": 13.56990637,
        "meta_eccentricity": 0.02713377,
        "meta_inclination": 99.1941,
        "meta_ra_of_asc_node": 10.9257,
        "meta_arg_of_pericenter": 244.9903,
        "meta_mean_anomaly": 141.4537,
        "meta_ephemeris_type": 0,
        "meta_classification_type": "U",
        "meta_norad_cat_id": 29916,
        "meta_element_set_no": 999,
        "meta_rev_at_epoch": 93524,
        "meta_bstar": 0.00059217872,
        "meta_mean_motion_dot": 4.92e-06,
        "meta_mean_motion_ddot": 0,
        "tle_line1": "1 29916U 99025HN  25352.01901338  .00000492  00000+0  59218-3 0  9996",
        "tle_line2": "2 29916  99.1941  10.9257 0271337 244.9903 141.4537 13.56990637935247"
      },
      "geometry": {
        "type": "Point",
        "coordinates": [
          -24.94005084175884,
          74.7440462125088
        ]
      }
    },
    {
      "type": "Feature",
      "properties": {
        "norad_id": 29917,
        "name": "FENGYUN 1C DEB",
        "group": "fengyun-1c-debris",
        "lat": 80.82780725717167,
        "lon": 109.24153679352658,
        "alt_km": 832.4692491133546,
        "timestamp": "2025-12-18T14:52:08.297952+00:00",
        "meta_object_name": "FENGYUN 1C DEB",
        "meta_object_id": "1999-025HP",
        "meta_epoch": "2025-12-17T21:14:31.259328",
        "meta_mean_motion": 13.70423629,
        "meta_eccentricity": 0.02230911,
        "meta_inclination": 98.8767,
        "meta_ra_of_asc_node": 213.1327,
        "meta_arg_of_pericenter": 110.6998,
        "meta_mean_anomaly": 320.7851,
        "meta_ephemeris_type": 0,
        "meta_classification_type": "U",
        "meta_norad_cat_id": 29917,
        "meta_element_set_no": 999,
        "meta_rev_at_epoch": 94201,
        "meta_bstar": 0.0011127295,
        "meta_mean_motion_dot": 1.136e-05,
        "meta_mean_motion_ddot": 0,
        "tle_line1": "1 29917U 99025HP  25351.88508402  .00001136  00000+0  11127-2 0  9998",
        "tle_line2": "2 29917  98.8767 213.1327 0223091 110.6998 320.7851 13.70423629942014"
      },
      "geometry": {
        "type": "Point",
        "coordinates": [
          109.24153679352658,
          80.82780725717167
        ]
      }
    },
    {
      "type": "Feature",
      "properties": {
        "norad_id": 29918,
        "name": "FENGYUN 1C DEB",
        "group": "fengyun-1c-debris",
        "lat": 2.687597058401543,
        "lon": -104.38907359545082,
        "alt_km": 786.8977719204204,
        "timestamp": "2025-12-18T14:52:08.297963+00:00",
        "meta_object_name": "FENGYUN 1C DEB",
        "meta_object_id": "1999-025HQ",
        "meta_epoch": "2025-12-18T05:58:47.680608",
        "meta_mean_motion": 14.3364144,
        "meta_eccentricity": 0.00131401,
        "meta_inclination": 98.8549,
        "meta_ra_of_asc_node": 74.8128,
        "meta_arg_of_pericenter": 298.6404,
        "meta_mean_anomaly": 128.1777,
        "meta_ephemeris_type": 0,
        "meta_classification_type": "U",
        "meta_norad_cat_id": 29918,
        "meta_element_set_no": 999,
        "meta_rev_at_epoch": 97873,
        "meta_bstar": 0.0011684038,
        "meta_mean_motion_dot": 3.196e-05,
        "meta_mean_motion_ddot": 0,
        "tle_line1": "1 29918U 99025HQ  25352.24916297  .00003196  00000+0  11684-2 0  9991",
        "tle_line2": "2 29918  98.8549  74.8128 0013140 298.6404 128.1777 14.33641440978733"
      },
      "geometry": {
        "type": "Point",
        "coordinates": [
          -104.38907359545082,
          2.687597058401543
        ]
      }
    },
    {
      "type": "Feature",
      "properties": {
        "norad_id": 29919,
        "name": "FENGYUN 1C DEB",
        "group": "fengyun-1c-debris",
        "lat": 0.2664068974157091,
        "lon": -33.47238630921427,
        "alt_km": 1033.4343871274832,
        "timestamp": "2025-12-18T14:52:08.297973+00:00",
        "meta_object_name": "FENGYUN 1C DEB",
        "meta_object_id": "1999-025HR",
        "meta_epoch": "2025-12-18T07:37:06.059136",
        "meta_mean_motion": 13.85125585,
        "meta_eccentricity": 0.01371143,
        "meta_inclination": 98.4792,
        "meta_ra_of_asc_node": 146.2146,
        "meta_arg_of_pericenter": 328.4906,
        "meta_mean_anomaly": 146.3375,
        "meta_ephemeris_type": 0,
        "meta_classification_type": "U",
        "meta_norad_cat_id": 29919,
        "meta_element_set_no": 999,
        "meta_rev_at_epoch": 95612,
        "meta_bstar": 0.00014922084,
        "meta_mean_motion_dot": 1.43e-06,
        "meta_mean_motion_ddot": 0,
        "tle_line1": "1 29919U 99025HR  25352.31743124  .00000143  00000+0  14922-3 0  9995",
        "tle_line2": "2 29919  98.4792 146.2146 0137114 328.4906 146.3375 13.85125585956129"
      },
      "geometry": {
        "type": "Point",
        "coordinates": [
          -33.47238630921427,
          0.2664068974157091
        ]
      }
    },
    {
      "type": "Feature",
      "properties": {
        "norad_id": 29920,
        "name": "FENGYUN 1C DEB",
        "group": "fengyun-1c-debris",
        "lat": 81.44044269942763,
        "lon": 127.9471132438213,
        "alt_km": 964.2672485611783,
        "timestamp": "2025-12-18T14:52:08.297983+00:00",
        "meta_object_name": "FENGYUN 1C DEB",
        "meta_object_id": "1999-025HS",
        "meta_epoch": "2025-12-17T02:31:00.122592",
        "meta_mean_motion": 14.03677214,
        "meta_eccentricity": 0.0125202,
        "meta_inclination": 98.3914,
        "meta_ra_of_asc_node": 205.2684,
        "meta_arg_of_pericenter": 268.4773,
        "meta_mean_anomaly": 90.2051,
        "meta_ephemeris_type": 0,
        "meta_classification_type": "U",
        "meta_norad_cat_id": 29920,
        "meta_element_set_no": 999,
        "meta_rev_at_epoch": 96349,
        "meta_bstar": 0.0011508122,
        "meta_mean_motion_dot": 1.899e-05,
        "meta_mean_motion_ddot": 0,
        "tle_line1": "1 29920U 99025HS  25351.10486253  .00001899  00000+0  11508-2 0  9995",
        "tle_line2": "2 29920  98.3914 205.2684 0125202 268.4773  90.2051 14.03677214963497"
      },
      "geometry": {
        "type": "Point",
        "coordinates": [
          127.9471132438213,
          81.44044269942763
        ]
      }
    },
    {
      "type": "Feature",
      "properties": {
        "norad_id": 29921,
        "name": "FENGYUN 1C DEB",
        "group": "fengyun-1c-debris",
        "lat": -13.651304540052827,
        "lon": 0.7190756287097799,
        "alt_km": 862.1454551329753,
        "timestamp": "2025-12-18T14:52:08.297993+00:00",
        "meta_object_name": "FENGYUN 1C DEB",
        "meta_object_id": "1999-025HT",
        "meta_epoch": "2025-12-18T06:42:27.057312",
        "meta_mean_motion": 14.06649551,
        "meta_eccentricity": 0.00463296,
        "meta_inclination": 98.7865,
        "meta_ra_of_asc_node": 358.2361,
        "meta_arg_of_pericenter": 54.3526,
        "meta_mean_anomaly": 11.345,
        "meta_ephemeris_type": 0,
        "meta_classification_type": "U",
        "meta_norad_cat_id": 29921,
        "meta_element_set_no": 999,
        "meta_rev_at_epoch": 96954,
        "meta_bstar": 0.00024326615,
        "meta_mean_motion_dot": 3.65e-06,
        "meta_mean_motion_ddot": 0,
        "tle_line1": "1 29921U 99025HT  25352.27947983  .00000365  00000+0  24327-3 0  9998",
        "tle_line2": "2 29921  98.7865 358.2361 0046329  54.3526  11.3450 14.06649551969543"
      },
      "geometry": {
        "type": "Point",
        "coordinates": [
          0.7190756287097799,
          -13.651304540052827
        ]
      }
    }
  ]
}